{"type": "FeatureCollection", "features": [{"type": "Feature", "properties": {"norad_id": 25590, "name": "COSMOS 2361", "group": "musson", "lat": 44.62826729062108, "lon": 146.8474965587547, "alt_km": 984.4784311970525, "timestamp": "2025-12-26T12:57:39.542642+00:00", "meta": {"OBJECT_NAME": "COSMOS 2361", "OBJECT_ID": "1998-076A", "EPOCH": "2025-12-26T00:22:01.527744", "MEAN_MOTION": 13.73218941, "ECCENTRICITY": 0.00303552, "INCLINATION": 82.9346, "RA_OF_ASC_NODE": 334.2672, "ARG_OF_PERICENTER": 227.1925, "MEAN_ANOMALY": 195.3497, "EPHEMERIS_TYPE": 0, "CLASSIFICATION_TYPE": "U", "NORAD_CAT_ID": 25590, "ELEMENT_SET_NO": 999, "REV_AT_EPOCH": 35293, "BSTAR": 5.6917113e-05, "MEAN_MOTION_DOT": 6.8e-07, "MEAN_MOTION_DDOT": 0}, "tle": {"line1": "1 25590U 98076A   25360.01529546  .00000068  00000+0  56917-4 0  9994", "line2": "2 25590  82.9346 334.2672 0030355 227.1925 195.3497 13.73218941352935"}}, "geometry": {"type": "Point", "coordinates": [146.8474965587547, 44.62826729062108]}}, {"type": "Feature", "properties": {"norad_id": 26818, "name": "COSMOS 2378", "group": "musson", "lat": -72.6498373784018, "lon": -167.0943346047086, "alt_km": 991.0424560309066, "timestamp": "2025-12-26T12:57:39.542664+00:00", "meta": {"OBJECT_NAME": "COSMOS 2378", "OBJECT_ID": "2001-023A", "EPOCH": "2025-12-26T01:33:12.760992", "MEAN_MOTION": 13.74143054, "ECCENTRICITY": 0.00332481, "INCLINATION": 82.9272, "RA_OF_ASC_NODE": 349.8438, "ARG_OF_PERICENTER": 167.5875, "MEAN_ANOMALY": 256.1209, "EPHEMERIS_TYPE": 0, "CLASSIFICATION_TYPE": "U", "NORAD_CAT_ID": 26818, "ELEMENT_SET_NO": 999, "REV_AT_EPOCH": 23106, "BSTAR": 4.077509e-05, "MEAN_MOTION_DOT": 5.4e-07, "MEAN_MOTION_DDOT": 0}, "tle": {"line1": "1 26818U 01023A   25360.06473103  .00000054  00000+0  40775-4 0  9996", "line2": "2 26818  82.9272 349.8438 0033248 167.5875 256.1209 13.74143054231064"}}, "geometry": {"type": "Point", "coordinates": [-167.0943346047086, -72.6498373784018]}}, {"type": "Feature", "properties": {"norad_id": 27436, "name": "COSMOS 2389", "group": "musson", "lat": 28.391585221096904, "lon": 112.93490475590578, "alt_km": 1001.1113020034618, "timestamp": "2025-12-26T12:57:39.542678+00:00", "meta": {"OBJECT_NAME": "COSMOS 2389", "OBJECT_ID": "2002-026A", "EPOCH": "2025-12-26T05:46:43.678848", "MEAN_MOTION": 13.75156079, "ECCENTRICITY": 0.00470185, "INCLINATION": 82.9514, "RA_OF_ASC_NODE": 296.9907, "ARG_OF_PERICENTER": 23.859, "MEAN_ANOMALY": 86.3341, "EPHEMERIS_TYPE": 0, "CLASSIFICATION_TYPE": "U", "NORAD_CAT_ID": 27436, "ELEMENT_SET_NO": 999, "REV_AT_EPOCH": 18334, "BSTAR": 6.6808591e-05, "MEAN_MOTION_DOT": 8e-07, "MEAN_MOTION_DDOT": 0}, "tle": {"line1": "1 27436U 02026A   25360.24078332  .00000080  00000+0  66809-4 0  9997", "line2": "2 27436  82.9514 296.9907 0047018  23.8590  86.3341 13.75156079183340"}}, "geometry": {"type": "Point", "coordinates": [112.93490475590578, 28.391585221096904]}}, {"type": "Feature", "properties": {"norad_id": 27818, "name": "COSMOS 2398", "group": "musson", "lat": -34.01666885038666, "lon": -102.26292470337485, "alt_km": 1005.0207998636306, "timestamp": "2025-12-26T12:57:39.542690+00:00", "meta": {"OBJECT_NAME": "COSMOS 2398", "OBJECT_ID": "2003-023A", "EPOCH": "2025-12-26T05:07:17.996736", "MEAN_MOTION": 13.72387226, "ECCENTRICITY": 0.0032681, "INCLINATION": 82.9482, "RA_OF_ASC_NODE": 262.7699, "ARG_OF_PERICENTER": 75.9149, "MEAN_ANOMALY": 77.3477, "EPHEMERIS_TYPE": 0, "CLASSIFICATION_TYPE": "U", "NORAD_CAT_ID": 27818, "ELEMENT_SET_NO": 999, "REV_AT_EPOCH": 13001, "BSTAR": 6.7800998e-05, "MEAN_MOTION_DOT": 7.8e-07, "MEAN_MOTION_DDOT": 0}, "tle": {"line1": "1 27818U 03023A   25360.21340274  .00000078  00000+0  67801-4 0  9993", "line2": "2 27818  82.9482 262.7699 0032681  75.9149  77.3477 13.72387226130018"}}, "geometry": {"type": "Point", "coordinates": [-102.26292470337485, -34.01666885038666]}}, {"type": "Feature", "properties": {"norad_id": 28380, "name": "COSMOS 2407", "group": "musson", "lat": -3.49676254819138, "lon": -157.75809216109795, "alt_km": 952.9682486956863, "timestamp": "2025-12-26T12:57:39.542702+00:00", "meta": {"OBJECT_NAME": "COSMOS 2407", "OBJECT_ID": "2004-028A", "EPOCH": "2025-12-26T01:31:13.832256", "MEAN_MOTION": 13.763151, "ECCENTRICITY": 0.00396832, "INCLINATION": 82.9593, "RA_OF_ASC_NODE": 203.0276, "ARG_OF_PERICENTER": 18.3923, "MEAN_ANOMALY": 137.8378, "EPHEMERIS_TYPE": 0, "CLASSIFICATION_TYPE": "U", "NORAD_CAT_ID": 28380, "ELEMENT_SET_NO": 999, "REV_AT_EPOCH": 7606, "BSTAR": 3.602448e-05, "MEAN_MOTION_DOT": 5.1e-07, "MEAN_MOTION_DDOT": 0}, "tle": {"line1": "1 28380U 04028A   25360.06335454  .00000051  00000+0  36024-4 0  9995", "line2": "2 28380  82.9593 203.0276 0039683  18.3923 137.8378 13.76315100 76067"}}, "geometry": {"type": "Point", "coordinates": [-157.75809216109795, -3.49676254819138]}}, {"type": "Feature", "properties": {"norad_id": 28521, "name": "COSMOS 2414", "group": "musson", "lat": 63.719041271274655, "lon": -20.29098136166704, "alt_km": 900.3477824514875, "timestamp": "2025-12-26T12:57:39.542713+00:00", "meta": {"OBJECT_NAME": "COSMOS 2414", "OBJECT_ID": "2005-002A", "EPOCH": "2025-12-26T05:29:20.936256", "MEAN_MOTION": 13.879046, "ECCENTRICITY": 0.00414345, "INCLINATION": 82.9488, "RA_OF_ASC_NODE": 174.4596, "ARG_OF_PERICENTER": 102.3053, "MEAN_ANOMALY": 258.2754, "EPHEMERIS_TYPE": 0, "CLASSIFICATION_TYPE": "U", "NORAD_CAT_ID": 28521, "ELEMENT_SET_NO": 999, "REV_AT_EPOCH": 5982, "BSTAR": 4.4991255e-05, "MEAN_MOTION_DOT": 7e-07, "MEAN_MOTION_DDOT": 0}, "tle": {"line1": "1 28521U 05002A   25360.22871454  .00000070  00000+0  44991-4 0  9991", "line2": "2 28521  82.9488 174.4596 0041434 102.3053 258.2754 13.87904600 59820"}}, "geometry": {"type": "Point", "coordinates": [-20.29098136166704, 63.719041271274655]}}, {"type": "Feature", "properties": {"norad_id": 32052, "name": "COSMOS 2429", "group": "musson", "lat": -23.6783697932889, "lon": -29.961757818731364, "alt_km": 960.605879703422, "timestamp": "2025-12-26T12:57:39.542723+00:00", "meta": {"OBJECT_NAME": "COSMOS 2429", "OBJECT_ID": "2007-038A", "EPOCH": "2025-12-26T00:51:08.061408", "MEAN_MOTION": 13.75150637, "ECCENTRICITY": 0.00384448, "INCLINATION": 82.9809, "RA_OF_ASC_NODE": 333.5069, "ARG_OF_PERICENTER": 1.214, "MEAN_ANOMALY": 358.9103, "EPHEMERIS_TYPE": 0, "CLASSIFICATION_TYPE": "U", "NORAD_CAT_ID": 32052, "ELEMENT_SET_NO": 999, "REV_AT_EPOCH": 91785, "BSTAR": 4.6145348e-05, "MEAN_MOTION_DOT": 6e-07, "MEAN_MOTION_DDOT": 0}, "tle": {"line1": "1 32052U 07038A   25360.03550997  .00000060  00000+0  46145-4 0  9993", "line2": "2 32052  82.9809 333.5069 0038444   1.2140 358.9103 13.75150637917857"}}, "geometry": {"type": "Point", "coordinates": [-29.961757818731364, -23.6783697932889]}}, {"type": "Feature", "properties": {"norad_id": 35635, "name": "COSMOS 2454", "group": "musson", "lat": -81.77856742251643, "lon": 37.02641923701946, "alt_km": 945.7387412925782, "timestamp": "2025-12-26T12:57:39.542754+00:00", "meta": {"OBJECT_NAME": "COSMOS 2454", "OBJECT_ID": "2009-039A", "EPOCH": "2025-12-26T00:09:39.040704", "MEAN_MOTION": 13.89930294, "ECCENTRICITY": 0.00199493, "INCLINATION": 82.9559, "RA_OF_ASC_NODE": 158.5879, "ARG_OF_PERICENTER": 37.9318, "MEAN_ANOMALY": 80.8204, "EPHEMERIS_TYPE": 0, "CLASSIFICATION_TYPE": "U", "NORAD_CAT_ID": 35635, "ELEMENT_SET_NO": 999, "REV_AT_EPOCH": 83334, "BSTAR": 5.4956356e-05, "MEAN_MOTION_DOT": 8.4e-07, "MEAN_MOTION_DDOT": 0}, "tle": {"line1": "1 35635U 09039A   25360.00670186  .00000084  00000+0  54956-4 0  9991", "line2": "2 35635  82.9559 158.5879 0019949  37.9318  80.8204 13.89930294833349"}}, "geometry": {"type": "Point", "coordinates": [37.02641923701946, -81.77856742251643]}}, {"type": "Feature", "properties": {"norad_id": 36519, "name": "COSMOS 2463", "group": "musson", "lat": 60.28562584330841, "lon": -175.93302145350677, "alt_km": 1004.0708295747108, "timestamp": "2025-12-26T12:57:39.542782+00:00", "meta": {"OBJECT_NAME": "COSMOS 2463", "OBJECT_ID": "2010-017A", "EPOCH": "2025-12-26T03:57:12.979584", "MEAN_MOTION": 13.71650325, "ECCENTRICITY": 0.00348292, "INCLINATION": 82.9603, "RA_OF_ASC_NODE": 16.8464, "ARG_OF_PERICENTER": 249.4013, "MEAN_ANOMALY": 177.5936, "EPHEMERIS_TYPE": 0, "CLASSIFICATION_TYPE": "U", "NORAD_CAT_ID": 36519, "ELEMENT_SET_NO": 999, "REV_AT_EPOCH": 78421, "BSTAR": 3.5998771e-05, "MEAN_MOTION_DOT": 4.7e-07, "MEAN_MOTION_DDOT": 0}, "tle": {"line1": "1 36519U 10017A   25360.16473356  .00000047  00000+0  35999-4 0  9993", "line2": "2 36519  82.9603  16.8464 0034829 249.4013 177.5936 13.71650325784215"}}, "geometry": {"type": "Point", "coordinates": [-175.93302145350677, 60.28562584330841]}}]}